STARLINK-1032
1 14737C 19074AA  21326.14478076  .00005310  00000-0  35587-3 0  3261
2 14737  53.0551  48.1011 0001250  76.4346 346.5097 15.06385192    14
